{
  "type": "FeatureCollection",
  "features": [
    {
      "type": "Feature",
      "properties": {
        "norad_id": 41860,
        "name": "GSAT0212 (GALILEO 16)",
        "group": "galileo",
        "lat": 49.46316045844556,
        "lon": -127.54558737277611,
        "alt_km": 23215.44317907485,
        "timestamp": "2025-12-11T15:53:39.805417+00:00",
        "meta_object_name": "GSAT0212 (GALILEO 16)",
        "meta_object_id": "2016-069B",
        "meta_epoch": "2025-12-09T03:10:58.927872",
        "meta_mean_motion": 1.70474546,
        "meta_eccentricity": 0.00021877,
        "meta_inclination": 55.3778,
        "meta_ra_of_asc_node": 106.3455,
        "meta_arg_of_pericenter": 30.0277,
        "meta_mean_anomaly": 329.9496,
        "meta_ephemeris_type": 0,
        "meta_classification_type": "U",
        "meta_norad_cat_id": 41860,
        "meta_element_set_no": 999,
        "meta_rev_at_epoch": 5641,
        "meta_bstar": 0,
        "meta_mean_motion_dot": 1e-07,
        "meta_mean_motion_ddot": 0,
        "tle_line1": "1 41860U 16069B   25343.13262648  .00000010  00000+0  00000+0 0  9999",
        "tle_line2": "2 41860  55.3778 106.3455 0002187  30.0277 329.9496  1.70474546 56413"
      },
      "geometry": {
        "type": "Point",
        "coordinates": [
          -127.54558737277611,
          49.46316045844556
        ]
      }
    },
    {
      "type": "Feature",
      "properties": {
        "norad_id": 41861,
        "name": "GSAT0213 (GALILEO 17)",
        "group": "galileo",
        "lat": -49.207441187786294,
        "lon": -20.62193867085368,
        "alt_km": 23222.198553638817,
        "timestamp": "2025-12-11T15:53:39.805428+00:00",
        "meta_object_name": "GSAT0213 (GALILEO 17)",
        "meta_object_id": "2016-069C",
        "meta_epoch": "2025-12-08T21:55:35.814144",
        "meta_mean_motion": 1.70474823,
        "meta_eccentricity": 0.00022753,
        "meta_inclination": 55.38,
        "meta_ra_of_asc_node": 106.3592,
        "meta_arg_of_pericenter": 283.5203,
        "meta_mean_anomaly": 76.4183,
        "meta_ephemeris_type": 0,
        "meta_classification_type": "U",
        "meta_norad_cat_id": 41861,
        "meta_element_set_no": 999,
        "meta_rev_at_epoch": 5627,
        "meta_bstar": 0,
        "meta_mean_motion_dot": 1e-07,
        "meta_mean_motion_ddot": 0,
        "tle_line1": "1 41861U 16069C   25342.91360896  .00000010  00000+0  00000+0 0  9999",
        "tle_line2": "2 41861  55.3800 106.3592 0002275 283.5203  76.4183  1.70474823 56273"
      },
      "geometry": {
        "type": "Point",
        "coordinates": [
          -20.62193867085368,
          -49.207441187786294
        ]
      }
    },
    {
      "type": "Feature",
      "properties": {
        "norad_id": 41862,
        "name": "GSAT0214 (GALILEO 18)",
        "group": "galileo",
        "lat": 18.493180313475165,
        "lon": -87.0814193880204,
        "alt_km": 23222.6448766271,
        "timestamp": "2025-12-11T15:53:39.805438+00:00",
        "meta_object_name": "GSAT0214 (GALILEO 18)",
        "meta_object_id": "2016-069D",
        "meta_epoch": "2025-12-10T19:39:52.929504",
        "meta_mean_motion": 1.70474684,
        "meta_eccentricity": 0.00013288,
        "meta_inclination": 55.3792,
        "meta_ra_of_asc_node": 106.2992,
        "meta_arg_of_pericenter": 290.9764,
        "meta_mean_anomaly": 68.9794,
        "meta_ephemeris_type": 0,
        "meta_classification_type": "U",
        "meta_norad_cat_id": 41862,
        "meta_element_set_no": 999,
        "meta_rev_at_epoch": 5643,
        "meta_bstar": 0,
        "meta_mean_motion_dot": 1e-07,
        "meta_mean_motion_ddot": 0,
        "tle_line1": "1 41862U 16069D   25344.81936261  .00000010  00000+0  00000+0 0  9996",
        "tle_line2": "2 41862  55.3792 106.2992 0001328 290.9764  68.9794  1.70474684 56436"
      },
      "geometry": {
        "type": "Point",
        "coordinates": [
          -87.0814193880204,
          18.493180313475165
        ]
      }
    },
    {
      "type": "Feature",
      "properties": {
        "norad_id": 43055,
        "name": "GSAT0215 (GALILEO 19)",
        "group": "galileo",
        "lat": -29.22286001312798,
        "lon": 69.61147023999952,
        "alt_km": 23228.25604248134,
        "timestamp": "2025-12-11T15:53:39.805457+00:00",
        "meta_object_name": "GSAT0215 (GALILEO 19)",
        "meta_object_id": "2017-079A",
        "meta_epoch": "2025-12-09T13:11:41.418816",
        "meta_mean_motion": 1.70473866,
        "meta_eccentricity": 0.00012854,
        "meta_inclination": 55.1311,
        "meta_ra_of_asc_node": 226.7257,
        "meta_arg_of_pericenter": 343.8684,
        "meta_mean_anomaly": 16.2123,
        "meta_ephemeris_type": 0,
        "meta_classification_type": "U",
        "meta_norad_cat_id": 43055,
        "meta_element_set_no": 999,
        "meta_rev_at_epoch": 4975,
        "meta_bstar": 0,
        "meta_mean_motion_dot": 1.1e-07,
        "meta_mean_motion_ddot": 0,
        "tle_line1": "1 43055U 17079A   25343.54978494  .00000011  00000+0  00000+0 0  9998",
        "tle_line2": "2 43055  55.1311 226.7257 0001285 343.8684  16.2123  1.70473866 49750"
      },
      "geometry": {
        "type": "Point",
        "coordinates": [
          69.61147023999952,
          -29.22286001312798
        ]
      }
    },
    {
      "type": "Feature",
      "properties": {
        "norad_id": 43056,
        "name": "GSAT0216 (GALILEO 20)",
        "group": "galileo",
        "lat": 30.14251768796649,
        "lon": -109.46399954489438,
        "alt_km": 23216.93964743614,
        "timestamp": "2025-12-11T15:53:39.805478+00:00",
        "meta_object_name": "GSAT0216 (GALILEO 20)",
        "meta_object_id": "2017-079B",
        "meta_epoch": "2025-12-10T10:15:48.535776",
        "meta_mean_motion": 1.70473969,
        "meta_eccentricity": 0.000248,
        "meta_inclination": 55.1311,
        "meta_ra_of_asc_node": 226.7014,
        "meta_arg_of_pericenter": 319.9818,
        "meta_mean_anomaly": 40.0811,
        "meta_ephemeris_type": 0,
        "meta_classification_type": "U",
        "meta_norad_cat_id": 43056,
        "meta_element_set_no": 999,
        "meta_rev_at_epoch": 4978,
        "meta_bstar": 0,
        "meta_mean_motion_dot": 9e-08,
        "meta_mean_motion_ddot": 0,
        "tle_line1": "1 43056U 17079B   25344.42764509  .00000009  00000+0  00000+0 0  9994",
        "tle_line2": "2 43056  55.1311 226.7014 0002480 319.9818  40.0811  1.70473969 49789"
      },
      "geometry": {
        "type": "Point",
        "coordinates": [
          -109.46399954489438,
          30.14251768796649
        ]
      }
    },
    {
      "type": "Feature",
      "properties": {
        "norad_id": 43057,
        "name": "GSAT0217 (GALILEO 21)",
        "group": "galileo",
        "lat": -54.391293421356416,
        "lon": 123.28111067753613,
        "alt_km": 23226.847207218103,
        "timestamp": "2025-12-11T15:53:39.805510+00:00",
        "meta_object_name": "GSAT0217 (GALILEO 21)",
        "meta_object_id": "2017-079C",
        "meta_epoch": "2025-12-10T01:28:57.302112",
        "meta_mean_motion": 1.704739,
        "meta_eccentricity": 0.00027944,
        "meta_inclination": 55.1293,
        "meta_ra_of_asc_node": 226.7095,
        "meta_arg_of_pericenter": 343.7549,
        "meta_mean_anomaly": 16.3188,
        "meta_ephemeris_type": 0,
        "meta_classification_type": "U",
        "meta_norad_cat_id": 43057,
        "meta_element_set_no": 999,
        "meta_rev_at_epoch": 4976,
        "meta_bstar": 0,
        "meta_mean_motion_dot": 9e-08,
        "meta_mean_motion_ddot": 0,
        "tle_line1": "1 43057U 17079C   25344.06177433  .00000009  00000+0  00000+0 0  9999",
        "tle_line2": "2 43057  55.1293 226.7095 0002794 343.7549  16.3188  1.70473900 49768"
      },
      "geometry": {
        "type": "Point",
        "coordinates": [
          123.28111067753613,
          -54.391293421356416
        ]
      }
    },
    {
      "type": "Feature",
      "properties": {
        "norad_id": 43058,
        "name": "GSAT0218 (GALILEO 22)",
        "group": "galileo",
        "lat": 40.7927031564018,
        "lon": 9.714754137724059,
        "alt_km": 23225.562224992762,
        "timestamp": "2025-12-11T15:53:39.805530+00:00",
        "meta_object_name": "GSAT0218 (GALILEO 22)",
        "meta_object_id": "2017-079D",
        "meta_epoch": "2025-12-09T02:36:28.325952",
        "meta_mean_motion": 1.70473942,
        "meta_eccentricity": 0.00028125,
        "meta_inclination": 55.1298,
        "meta_ra_of_asc_node": 226.7335,
        "meta_arg_of_pericenter": 306.3632,
        "meta_mean_anomaly": 53.6978,
        "meta_ephemeris_type": 0,
        "meta_classification_type": "U",
        "meta_norad_cat_id": 43058,
        "meta_element_set_no": 999,
        "meta_rev_at_epoch": 4977,
        "meta_bstar": 0,
        "meta_mean_motion_dot": 1.2e-07,
        "meta_mean_motion_ddot": 0,
        "tle_line1": "1 43058U 17079D   25343.10866118  .00000012  00000+0  00000+0 0  9993",
        "tle_line2": "2 43058  55.1298 226.7335 0002812 306.3632  53.6978  1.70473942 49778"
      },
      "geometry": {
        "type": "Point",
        "coordinates": [
          9.714754137724059,
          40.7927031564018
        ]
      }
    }
  ]
}